ML06 ? BHZ i P c 20230928 0843 55.37033463 GAU 9.5464877E-4 0.0 -363.18967 0.0
ML06 ? BHN e S ? 20230928 0843 55.83705521 GAU 5.198303E-4 0.0 -18.996126 0.0
ML04 ? BHZ e P c 20230928 0843 55.49111176 GAU 0.0034960187 0.0 402.8533 0.0
ML04 ? BHN e S ? 20230928 0843 56.03247070 GAU 0.0011440705 0.0 720.0 0.0
ML14 ? BHZ i P c 20230928 0843 55.50937271 GAU 0.0012478604 0.0 -450.80707 0.0
ML14 ? BHE e S ? 20230928 0843 56.03766251 GAU 4.6950564E-4 0.0 453.97684 0.0
ML11 ? BHZ i P c 20230928 0843 55.51117325 GAU 0.0017884672 0.0 -287.01083 0.0
ML11 ? BHN e S ? 20230928 0843 56.08932877 GAU 4.715424E-4 0.0 -2.1992903 0.0
ML09 ? BHZ i P c 20230928 0843 55.62980270 GAU 4.694101E-4 0.0 85.39699 0.0
ML09 ? BHE e S ? 20230928 0843 56.30813980 GAU 1.59616E-4 0.0 360.40396 0.0
ML13 ? BHZ e P c 20230928 0843 55.77138901 GAU 0.002794356 0.0 -400.37137 0.0
ML13 ? BHE e S ? 20230928 0843 56.53626251 GAU 1.6710808E-4 0.0 -27.707058 0.0
ML10 ? BHZ e P c 20230928 0843 55.91837311 GAU 0.0014129474 0.0 -204.86386 0.0
ML10 ? BHN e S ? 20230928 0843 56.79670715 GAU 6.0670753E-4 0.0 68.75824 0.0
ML07 ? BHZ i P c 20230928 0843 56.11675262 GAU 4.9616245E-4 0.0 -573.8621 0.0
ML07 ? BHN e S ? 20230928 0843 57.14373398 GAU 2.8059524E-4 0.0 -17.536697 0.0
ML12 ? BHZ e P c 20230928 0843 56.46536255 GAU 0.001973238 0.0 -1485.5813 0.0
ML12 ? BHN e S ? 20230928 0843 57.66235733 GAU 5.7155994E-4 0.0 -62.685078 0.0

