ML06 ? BHZ i P c 20230928 0905 16.46334076 GAU 6.065527E-4 0.0 146.89833 0.0
ML06 ? BHN e S ? 20230928 0905 16.92183113 GAU 0.002472189 0.0 -11.923979 0.0
ML14 ? BHZ e P c 20230928 0905 16.51449776 GAU 0.002704903 0.0 -227.32562 0.0
ML14 ? BHE e S ? 20230928 0905 17.00731087 GAU 4.5127713E-4 0.0 358.34006 0.0
ML04 ? BHZ e P c 20230928 0905 16.55876732 GAU 7.940509E-4 0.0 -1274.9446 0.0
ML04 ? BHN e S ? 20230928 0905 17.07169151 GAU 9.0972544E-4 0.0 707.69434 0.0
ML11 ? BHZ i P c 20230928 0905 16.61289215 GAU 0.0024219325 0.0 4.22691 0.0
ML11 ? BHN i S ? 20230928 0905 17.17424965 GAU 5.615342E-4 0.0 5.795093 0.0
ML09 ? BHZ i P c 20230928 0905 16.71748734 GAU 0.0011381421 0.0 176.94525 0.0
ML09 ? BHE e S ? 20230928 0905 17.36472511 GAU 5.5573817E-4 0.0 399.61917 0.0
ML13 ? BHZ i P c 20230928 0905 16.81637764 GAU 6.619381E-4 0.0 -123.83153 0.0
ML13 ? BHE e S ? 20230928 0905 17.53076172 GAU 3.8474935E-4 0.0 -22.188883 0.0
ML07 ? BHZ e P c 20230928 0905 17.19850159 GAU 1.001129E-4 0.0 -586.29663 0.0
ML07 ? BHN e S ? 20230928 0905 18.20198822 GAU 3.4938738E-4 0.0 -13.54443 0.0

