ML04 ? BHZ e P d 20230928 0844 17.58160019 GAU 0.0016241105 0.0 709.2477 0.0
ML04 ? BHE e S ? 20230928 0844 18.08231354 GAU 3.74415E-4 0.0 330.17606 0.0
ML06 ? BHZ i P c 20230928 0844 17.59210396 GAU 0.001490434 0.0 88.746864 0.0
ML06 ? BHN e S ? 20230928 0844 18.08238029 GAU 5.535866E-4 0.0 14.686858 0.0
ML14 ? BHZ i P c 20230928 0844 17.69564629 GAU 0.0019905579 0.0 197.97067 0.0
ML14 ? BHE e S ? 20230928 0844 18.19214249 GAU 0.001940702 0.0 446.351 0.0
ML11 ? BHZ i P c 20230928 0844 17.70484352 GAU 0.003245223 0.0 -131.11748 0.0
ML11 ? BHN e S ? 20230928 0844 18.32040024 GAU 0.0014904941 0.0 -28.0 0.0
ML02 ? BHZ i P c 20230928 0844 17.71629524 GAU 8.984419E-4 0.0 -1067.4406 0.0
ML02 ? BHE e S ? 20230928 0844 18.37804604 GAU 0.0013805699 0.0 -1607.6216 0.0
ML09 ? BHZ i P c 20230928 0844 17.83382988 GAU 0.0011178138 0.0 119.99632 0.0
ML09 ? BHN i S ? 20230928 0844 18.49744606 GAU 7.798715E-4 0.0 510.68243 0.0
ML13 ? BHZ i P c 20230928 0844 17.96281242 GAU 0.0014334132 0.0 -7.512024 0.0
ML13 ? BHE e S ? 20230928 0844 18.70939636 GAU 0.0017067068 0.0 -35.806206 0.0
ML10 ? BHZ i P c 20230928 0844 18.11163139 GAU 0.002582291 0.0 221.50839 0.0
ML10 ? BHN e S ? 20230928 0844 19.03415108 GAU 0.0035396535 0.0 61.0 0.0
ML05 ? BHZ e P c 20230928 0844 18.29986763 GAU 6.863221E-4 0.0 -527.79224 0.0
ML05 ? BHN e S ? 20230928 0844 19.31551170 GAU 6.239302E-4 0.0 282.28964 0.0
ML07 ? BHZ e P c 20230928 0844 18.32659340 GAU 9.133762E-4 0.0 -521.09784 0.0
ML07 ? BHN e S ? 20230928 0844 19.39622116 GAU 0.0013102513 0.0 15.0 0.0
ML12 ? BHZ e P d 20230928 0844 18.74792671 GAU 0.0012106033 0.0 -1211.3732 0.0
ML12 ? BHN e S ? 20230928 0844 20.07233429 GAU 0.0011617586 0.0 -84.9047 0.0

