ML06 ? BHZ i P c 20230928 0859 47.14968109 GAU 0.0012938317 0.0 -30.915844 0.0
ML06 ? BHN e S ? 20230928 0859 47.62284470 GAU 0.0012578919 0.0 -11.723128 0.0
ML04 ? BHZ e P c 20230928 0859 47.21634674 GAU 0.0017589614 0.0 158.1633 0.0
ML04 ? BHN e S ? 20230928 0859 47.70526123 GAU 9.2491537E-4 0.0 695.4235 0.0
ML14 ? BHZ e P c 20230928 0859 47.23765182 GAU 0.001347618 0.0 -1017.45197 0.0
ML14 ? BHE e S ? 20230928 0859 47.74377441 GAU 0.0010531116 0.0 459.0 0.0
ML11 ? BHZ e P c 20230928 0859 47.28121567 GAU 0.0026304515 0.0 -255.80592 0.0
ML11 ? BHN i S ? 20230928 0859 47.86941528 GAU 0.0016822183 0.0 10.179178 0.0
ML09 ? BHZ i P c 20230928 0859 47.39684296 GAU 5.373378E-4 0.0 58.09368 0.0
ML09 ? BHE e S ? 20230928 0859 48.07989883 GAU 6.860307E-4 0.0 358.2285 0.0
ML13 ? BHZ e P c 20230928 0859 47.48979187 GAU 0.0031843104 0.0 -162.05542 0.0
ML13 ? BHN e S ? 20230928 0859 48.22156906 GAU 3.665129E-4 0.0 19.30363 0.0
ML05 ? BHZ e P c 20230928 0859 47.76035309 GAU 0.0016212403 0.0 138.42165 0.0
ML05 ? BHN e S ? 20230928 0859 48.66167450 GAU 1.6244697E-4 0.0 291.63098 0.0
ML07 ? BHZ e P c 20230928 0859 47.88495255 GAU 2.8941105E-4 0.0 -663.8734 0.0
ML07 ? BHE e S ? 20230928 0859 48.88594818 GAU 4.7267968E-4 0.0 -44.840523 0.0

