ML04 ? BHZ e P d 20230928 0841 02.84799910 GAU 7.9295016E-4 0.0 1762.6768 0.0
ML04 ? BHN e S ? 20230928 0841 03.36888289 GAU 0.0024216305 0.0 697.6961 0.0
ML06 ? BHZ i P c 20230928 0841 02.87588286 GAU 0.0011609006 0.0 -187.4534 0.0
ML06 ? BHN i S ? 20230928 0841 03.42847514 GAU 0.0010899262 0.0 -30.0 0.0
ML14 ? BHZ i P c 20230928 0841 02.94650817 GAU 0.0020182747 0.0 -104.419876 0.0
ML14 ? BHE e S ? 20230928 0841 03.52677560 GAU 7.504746E-4 0.0 440.0 0.0
ML02 ? BHZ e P c 20230928 0841 02.95100451 GAU 0.0012727773 0.0 -1497.5916 0.0
ML02 ? BHN e S ? 20230928 0841 03.55740190 GAU 0.0013578845 0.0 1757.6208 0.0
ML11 ? BHZ i P c 20230928 0841 02.97345114 GAU 0.0030826197 0.0 27.10298 0.0
ML11 ? BHN e S ? 20230928 0841 03.55463862 GAU 3.5105456E-4 0.0 3.6992605 0.0
ML09 ? BHZ i P c 20230928 0841 03.07075238 GAU 0.0028972994 0.0 82.42913 0.0
ML09 ? BHN e S ? 20230928 0841 03.76571846 GAU 3.1197717E-4 0.0 460.1563 0.0
ML13 ? BHZ i P c 20230928 0841 03.23905182 GAU 0.0011665988 0.0 -70.20196 0.0
ML13 ? BHN e S ? 20230928 0841 04.04379129 GAU 4.928227E-4 0.0 7.9611597 0.0
ML05 ? BHZ i P d 20230928 0841 03.49510288 GAU 0.0012937817 0.0 112.26312 0.0
ML05 ? BHN e S ? 20230928 0841 04.50986004 GAU 3.6856852E-4 0.0 307.86694 0.0
ML07 ? BHZ i P d 20230928 0841 03.53547883 GAU 0.0010780944 0.0 -369.9226 0.0
ML07 ? BHE e S ? 20230928 0841 04.53398085 GAU 9.732629E-4 0.0 -55.82889 0.0
ML12 ? BHZ e P c 20230928 0841 03.72274542 GAU 4.6932756E-4 0.0 -1545.7749 0.0
ML12 ? BHN e S ? 20230928 0841 04.88180494 GAU 9.882683E-4 0.0 -56.905052 0.0

