ML04 ? BHZ e P c 20230928 0839 30.30756187 GAU 0.0017207316 0.0 -775.32056 0.0
ML04 ? BHN e S ? 20230928 0839 30.78513336 GAU 5.2212516E-4 0.0 770.0409 0.0
ML14 ? BHZ e P c 20230928 0839 30.32422829 GAU 0.0031192643 0.0 -603.09735 0.0
ML14 ? BHN e S ? 20230928 0839 30.82523537 GAU 3.7414313E-4 0.0 330.5937 0.0
ML06 ? BHZ i P c 20230928 0839 30.33219147 GAU 0.0015648468 0.0 31.591002 0.0
ML06 ? BHN e S ? 20230928 0839 30.82889748 GAU 0.0024696216 0.0 -19.338068 0.0
ML11 ? BHZ i P c 20230928 0839 30.45240021 GAU 0.0012659733 0.0 -86.22955 0.0
ML11 ? BHN e S ? 20230928 0839 31.02347565 GAU 0.0011996765 0.0 -5.55766 0.0
ML09 ? BHZ i P c 20230928 0839 30.54553604 GAU 3.830784E-4 0.0 29.375298 0.0
ML09 ? BHE e S ? 20230928 0839 31.19158745 GAU 3.8969424E-4 0.0 395.19724 0.0
ML02 ? BHZ e P d 20230928 0839 30.57156372 GAU 0.0016187676 0.0 -173.33493 0.0
ML02 ? BHE e S ? 20230928 0839 31.23777199 GAU 5.199254E-4 0.0 -2494.5552 0.0
ML13 ? BHZ e P d 20230928 0839 30.58756828 GAU 5.2406406E-4 0.0 159.34047 0.0
ML13 ? BHN e S ? 20230928 0839 31.27869034 GAU 2.7581645E-4 0.0 23.119272 0.0
ML05 ? BHZ e P d 20230928 0839 30.88857651 GAU 5.2406406E-4 0.0 230.1319 0.0
ML05 ? BHN e S ? 20230928 0839 31.79371262 GAU 4.5272542E-4 0.0 290.24554 0.0
ML07 ? BHZ i P c 20230928 0839 30.98620415 GAU 5.089681E-4 0.0 -582.77167 0.0
ML07 ? BHE e S ? 20230928 0839 31.96515274 GAU 0.0010006353 0.0 -59.95375 0.0

