ML06 ? BHZ i P c 20230928 0839 16.85832214 GAU 0.0021570344 0.0 55.562428 0.0
ML06 ? BHN e S ? 20230928 0839 17.34867668 GAU 6.211657E-4 0.0 -44.387806 0.0
ML14 ? BHZ e P c 20230928 0839 16.92649651 GAU 0.0018629044 0.0 261.0581 0.0
ML14 ? BHE e S ? 20230928 0839 17.42836189 GAU 0.0014293833 0.0 397.1931 0.0
ML04 ? BHZ e P c 20230928 0839 16.92667198 GAU 8.2543446E-4 0.0 -796.34717 0.0
ML04 ? BHN e S ? 20230928 0839 17.47384262 GAU 4.3326855E-4 0.0 822.1821 0.0
ML02 ? BHZ e P c 20230928 0839 16.94260788 GAU 4.6795103E-4 0.0 -1232.1147 0.0
ML02 ? BHE e S ? 20230928 0839 17.47750282 GAU 5.388395E-4 0.0 -1839.0907 0.0
ML11 ? BHZ i P c 20230928 0839 16.98050499 GAU 0.0024840306 0.0 -209.54976 0.0
ML11 ? BHE e S ? 20230928 0839 17.53934479 GAU 5.3370756E-4 0.0 -79.699356 0.0
ML09 ? BHZ i P c 20230928 0839 17.07343102 GAU 5.989509E-4 0.0 278.4773 0.0
ML09 ? BHN e S ? 20230928 0839 17.70264435 GAU 0.0010482011 0.0 469.9825 0.0
ML13 ? BHZ e P c 20230928 0839 17.19652557 GAU 0.0040242076 0.0 -309.9789 0.0
ML13 ? BHE e S ? 20230928 0839 17.90019989 GAU 8.232731E-4 0.0 -44.0 0.0
ML05 ? BHZ i P c 20230928 0839 17.53152847 GAU 8.085837E-4 0.0 0.5999158 0.0
ML05 ? BHN e S ? 20230928 0839 18.51200867 GAU 3.9717293E-4 0.0 291.38675 0.0
ML07 ? BHZ e P c 20230928 0839 17.55418396 GAU 1.3852051E-4 0.0 -608.6113 0.0
ML07 ? BHN e S ? 20230928 0839 18.55506706 GAU 0.0011642454 0.0 -2.394183 0.0
ML12 ? BHZ e P d 20230928 0839 17.64645767 GAU 5.989579E-4 0.0 -967.4705 0.0
ML12 ? BHE e S ? 20230928 0839 18.69505119 GAU 0.0011859665 0.0 425.0009 0.0

