ML06 ? BHZ i P c 20230928 0844 29.05624390 GAU 7.187664E-4 0.0 216.82745 0.0
ML06 ? BHE e S ? 20230928 0844 29.53452682 GAU 0.0012942418 0.0 8.0 0.0
ML04 ? BHZ e P c 20230928 0844 29.10216141 GAU 0.0015524796 0.0 -462.90015 0.0
ML04 ? BHN e S ? 20230928 0844 29.59029388 GAU 0.0012090771 0.0 692.32367 0.0
ML14 ? BHZ i P c 20230928 0844 29.13955498 GAU 0.0037418606 0.0 331.3424 0.0
ML14 ? BHE e S ? 20230928 0844 29.66524506 GAU 7.545936E-4 0.0 568.0 0.0
ML11 ? BHZ i P c 20230928 0844 29.15581322 GAU 0.0014016511 0.0 61.672253 0.0
ML11 ? BHN e S ? 20230928 0844 29.71244240 GAU 4.2126546E-4 0.0 29.955416 0.0
ML09 ? BHZ i P c 20230928 0844 29.24985886 GAU 0.0015201468 0.0 127.605934 0.0
ML09 ? BHN e S ? 20230928 0844 29.89049149 GAU 6.238972E-4 0.0 425.1915 0.0
ML02 ? BHZ e P c 20230928 0844 29.27121544 GAU 7.2789117E-4 0.0 -2686.121 0.0
ML02 ? BHE e S ? 20230928 0844 29.90689468 GAU 0.0014990299 0.0 1839.9071 0.0
ML13 ? BHZ i P c 20230928 0844 29.35956955 GAU 0.0017413561 0.0 -162.24196 0.0
ML13 ? BHN e S ? 20230928 0844 30.07982254 GAU 0.0018366663 0.0 -19.010792 0.0
ML10 ? BHZ e P d 20230928 0844 29.54664421 GAU 3.909454E-4 0.0 2737.5137 0.0
ML10 ? BHN e S ? 20230928 0844 30.34330559 GAU 8.3933125E-4 0.0 55.94618 0.0
ML05 ? BHZ e P d 20230928 0844 29.57135963 GAU 8.11108E-4 0.0 920.7375 0.0
ML05 ? BHN e S ? 20230928 0844 30.43152428 GAU 9.1139285E-4 0.0 325.64355 0.0
ML07 ? BHZ i P d 20230928 0844 29.67217064 GAU 1.7412534E-4 0.0 -368.05176 0.0
ML07 ? BHN e S ? 20230928 0844 30.58599663 GAU 7.4525404E-4 0.0 -96.91264 0.0
ML12 ? BHZ i P c 20230928 0844 29.89188004 GAU 8.625545E-4 0.0 -1701.0491 0.0
ML12 ? BHN e S ? 20230928 0844 30.97280312 GAU 0.0021736373 0.0 -77.7863 0.0

