ML06 ? BHZ i P c 20230928 0847 33.69959259 GAU 6.288739E-4 0.0 -96.34254 0.0
ML06 ? BHN e S ? 20230928 0847 34.14472580 GAU 8.9839124E-4 0.0 -56.85421 0.0
ML14 ? BHZ i P c 20230928 0847 33.74773026 GAU 0.0026080657 0.0 -397.06436 0.0
ML14 ? BHE e S ? 20230928 0847 34.23969650 GAU 8.7337225E-4 0.0 349.6698 0.0
ML04 ? BHZ e P d 20230928 0847 33.77605438 GAU 8.584747E-4 0.0 593.3749 0.0
ML04 ? BHN e S ? 20230928 0847 34.29734039 GAU 0.0013197997 0.0 746.071 0.0
ML11 ? BHZ i P c 20230928 0847 33.81575775 GAU 0.0020119364 0.0 -148.54323 0.0
ML11 ? BHN e S ? 20230928 0847 34.37306976 GAU 0.0011642454 0.0 4.0 0.0
ML09 ? BHZ i P c 20230928 0847 33.89839554 GAU 0.0013973382 0.0 -249.63998 0.0
ML09 ? BHN e S ? 20230928 0847 34.50233459 GAU 3.087609E-4 0.0 532.69775 0.0
ML13 ? BHZ i P c 20230928 0847 34.04343414 GAU 8.084401E-4 0.0 -285.9726 0.0
ML13 ? BHE e S ? 20230928 0847 34.74704742 GAU 5.6346E-4 0.0 -54.13582 0.0
ML05 ? BHZ e P c 20230928 0847 34.36580658 GAU 0.0026258247 0.0 -407.1185 0.0
ML05 ? BHE e S ? 20230928 0847 35.31253433 GAU 2.3928493E-4 0.0 -123.39449 0.0
ML07 ? BHZ i P c 20230928 0847 34.37787628 GAU 0.0015525297 0.0 -700.7312 0.0
ML07 ? BHN e S ? 20230928 0847 35.33153152 GAU 0.0012765559 0.0 -14.260318 0.0
ML12 ? BHZ e P c 20230928 0847 34.64812469 GAU 0.0018854766 0.0 -1280.1134 0.0
ML12 ? BHN e S ? 20230928 0847 35.79763412 GAU 7.1983744E-4 0.0 -28.17529 0.0

