ML06 ? BHZ i P d 20230928 0842 20.23197746 GAU 0.0023291018 0.0 152.30852 0.0
ML06 ? BHN e S ? 20230928 0842 20.70131111 GAU 0.0019054218 0.0 -77.781685 0.0
ML14 ? BHZ e P c 20230928 0842 20.33028984 GAU 0.0014731716 0.0 -539.65015 0.0
ML14 ? BHN e S ? 20230928 0842 20.80490685 GAU 5.415325E-4 0.0 324.78717 0.0
ML02 ? BHZ e P c 20230928 0842 20.37575531 GAU 4.2121916E-4 0.0 -2482.0393 0.0
ML02 ? BHE e S ? 20230928 0842 20.98425484 GAU 7.187448E-4 0.0 513.64526 0.0
ML11 ? BHZ e P c 20230928 0842 20.43995285 GAU 0.0011859603 0.0 -756.83795 0.0
ML11 ? BHN i S ? 20230928 0842 21.07730675 GAU 8.0858794E-4 0.0 -0.60168827 0.0
ML09 ? BHZ i P c 20230928 0842 20.46540642 GAU 2.0062532E-4 0.0 -122.85354 0.0
ML09 ? BHE e S ? 20230928 0842 21.16919136 GAU 0.0010482187 0.0 365.42047 0.0
ML13 ? BHZ i P c 20230928 0842 20.57842255 GAU 4.4990992E-4 0.0 -217.91235 0.0
ML13 ? BHN e S ? 20230928 0842 21.34958458 GAU 6.0651643E-4 0.0 20.23275 0.0
ML07 ? BHZ i P d 20230928 0842 20.90572739 GAU 2.680431E-4 0.0 -345.2745 0.0
ML07 ? BHN e S ? 20230928 0842 21.86745834 GAU 5.091544E-4 0.0 -6.9771676 0.0
ML05 ? BHZ e P c 20230928 0842 20.91839600 GAU 0.0015248312 0.0 -93.66001 0.0
ML05 ? BHN e S ? 20230928 0842 21.85597229 GAU 7.885246E-4 0.0 308.04974 0.0
ML12 ? BHZ i P d 20230928 0842 21.15889359 GAU 0.001261028 0.0 -1019.05615 0.0
ML12 ? BHE e S ? 20230928 0842 22.32698631 GAU 5.582315E-4 0.0 412.19543 0.0

