ML06 ? BHZ i P c 20230928 0910 21.00327301 GAU 6.8627123E-4 0.0 17.754734 0.0
ML06 ? BHE e S ? 20230928 0910 21.51057053 GAU 0.003862687 0.0 452.98105 0.0
ML04 ? BHZ e P c 20230928 0910 21.06659889 GAU 0.00361649 0.0 14.821091 0.0
ML04 ? BHN e S ? 20230928 0910 21.57554436 GAU 0.0013726029 0.0 355.41397 0.0
ML14 ? BHZ i P c 20230928 0910 21.07155609 GAU 0.015412165 0.0 -287.60822 0.0
ML14 ? BHE e S ? 20230928 0910 21.61924934 GAU 0.0013828605 0.0 1266.4551 0.0
ML11 ? BHZ i P c 20230928 0910 21.10719109 GAU 0.0043079853 0.0 -33.502125 0.0
ML11 ? BHN e S ? 20230928 0910 21.70177460 GAU 0.002242188 0.0 -306.44916 0.0
ML02 ? BHZ i P c 20230928 0910 21.19919014 GAU 0.005137838 0.0 -411.82706 0.0
ML02 ? BHN i S ? 20230928 0910 21.80045700 GAU 0.0028981105 0.0 -4211.3345 0.0
ML09 ? BHZ i P c 20230928 0910 21.21724319 GAU 8.0875854E-4 0.0 237.56192 0.0
ML09 ? BHE e S ? 20230928 0910 21.86798286 GAU 3.6408185E-4 0.0 648.2653 0.0
ML03 ? BHZ i P d 20230928 0910 21.30566788 GAU 8.9843106E-4 0.0 3277.7495 0.0
ML03 ? BHE e S ? 20230928 0910 22.04174995 GAU 0.001768089 0.0 -223.37852 0.0
ML13 ? BHZ i P c 20230928 0910 21.35382652 GAU 0.0026827008 0.0 42.759956 0.0
ML13 ? BHN e S ? 20230928 0910 22.14679718 GAU 3.1340565E-4 0.0 -112.634865 0.0
ML10 ? BHZ e P c 20230928 0910 21.46530342 GAU 0.0033398422 0.0 794.834 0.0
ML10 ? BHN e S ? 20230928 0910 22.27480698 GAU 0.0023998022 0.0 3.0 0.0
ML05 ? BHZ i P d 20230928 0910 21.63230896 GAU 0.0020050996 0.0 313.93314 0.0
ML05 ? BHE e S ? 20230928 0910 22.62107658 GAU 0.0022530565 0.0 -48.18323 0.0
ML07 ? BHZ i P d 20230928 0910 21.66024208 GAU 0.0012668896 0.0 -756.3715 0.0
ML07 ? BHN e S ? 20230928 0910 22.61737442 GAU 9.5909566E-4 0.0 84.212326 0.0
ML01 ? BHZ i P c 20230928 0910 21.67870522 GAU 0.0011679141 0.0 -389.22327 0.0
ML01 ? BHE e S ? 20230928 0910 22.67394638 GAU 0.0017249112 0.0 580.9056 0.0
ML12 ? BHZ i P c 20230928 0910 21.84641266 GAU 0.0016096109 0.0 -1654.6045 0.0
ML12 ? BHE e S ? 20230928 0910 22.94447517 GAU 0.0024840478 0.0 303.22595 0.0

