ML06 ? BHZ i P c 20230928 0840 42.04558563 GAU 7.451902E-4 0.0 2206.4146 0.0
ML06 ? BHN i S ? 20230928 0840 42.54173660 GAU 0.0017883964 0.0 -281.71902 0.0
ML04 ? BHZ i P d 20230928 0840 42.04991913 GAU 0.0075389273 0.0 1348.3256 0.0
ML04 ? BHE e S ? 20230928 0840 42.56015015 GAU 0.0015526661 0.0 -256.82678 0.0
ML02 ? BHZ i P c 20230928 0840 42.12353134 GAU 0.0013041251 0.0 -3046.6687 0.0
ML02 ? BHN e S ? 20230928 0840 42.68266678 GAU 9.7033114E-4 0.0 -17633.889 0.0
ML14 ? BHZ i P c 20230928 0840 42.14279938 GAU 0.0016761965 0.0 855.722 0.0
ML14 ? BHN e S ? 20230928 0840 42.64934921 GAU 9.705713E-4 0.0 2020.6394 0.0
ML11 ? BHZ i P c 20230928 0840 42.17551041 GAU 0.0015648468 0.0 807.3297 0.0
ML11 ? BHN e S ? 20230928 0840 42.75790405 GAU 0.0013725363 0.0 -297.91016 0.0
ML09 ? BHZ i P c 20230928 0840 42.27099228 GAU 0.0012419646 0.0 491.99768 0.0
ML09 ? BHE e S ? 20230928 0840 42.91765976 GAU 0.001737367 0.0 678.9416 0.0
ML03 ? BHZ i P d 20230928 0840 42.34866333 GAU 0.0014091325 0.0 1377.2267 0.0
ML03 ? BHN e S ? 20230928 0840 43.06422806 GAU 0.0013538768 0.0 -595.2141 0.0
ML13 ? BHZ i P c 20230928 0840 42.40247726 GAU 0.0016766139 0.0 578.5802 0.0
ML13 ? BHE e S ? 20230928 0840 43.12793350 GAU 0.0032107974 0.0 -311.7033 0.0
ML10 ? BHZ i P c 20230928 0840 42.43911743 GAU 0.0047645103 0.0 166.72893 0.0
ML10 ? BHN e S ? 20230928 0840 43.21545792 GAU 0.003353376 0.0 -518.48254 0.0
ML07 ? BHZ i P d 20230928 0840 42.66231918 GAU 0.0016767322 0.0 -312.5504 0.0
ML07 ? BHE e S ? 20230928 0840 43.61394882 GAU 0.0012855404 0.0 -337.30057 0.0
ML05 ? BHZ i P c 20230928 0840 42.72062302 GAU 0.0014575429 0.0 -2799.6313 0.0
ML05 ? BHN e S ? 20230928 0840 43.66652679 GAU 0.003373841 0.0 148.67111 0.0
ML01 ? BHZ i P c 20230928 0840 42.75093079 GAU 0.0028975205 0.0 1128.6759 0.0
ML01 ? BHN e S ? 20230928 0840 43.76402664 GAU 0.0018113644 0.0 1417.0044 0.0
ML12 ? BHZ e P d 20230928 0840 42.82218552 GAU 0.0014903236 0.0 65.41686 0.0
ML12 ? BHE e S ? 20230928 0840 43.88447189 GAU 0.0046351636 0.0 252.92863 0.0

