ML06 ? BHZ i P c 20230928 0837 41.34736252 GAU 0.0012419911 0.0 1899.9673 0.0
ML06 ? BHE e S ? 20230928 0837 41.79990387 GAU 6.7384104E-4 0.0 1081.0687 0.0
ML04 ? BHZ i P c 20230928 0837 41.42379761 GAU 0.0023174463 0.0 911.9735 0.0
ML04 ? BHN e S ? 20230928 0837 41.90281296 GAU 0.0020182354 0.0 -1893.8605 0.0
ML14 ? BHZ i P c 20230928 0837 41.47265244 GAU 0.0024590334 0.0 2990.509 0.0
ML14 ? BHE e S ? 20230928 0837 41.97112274 GAU 0.0014016181 0.0 4329.3286 0.0
ML11 ? BHZ i P c 20230928 0837 41.48919296 GAU 0.002253455 0.0 431.08884 0.0
ML11 ? BHN i S ? 20230928 0837 42.05515671 GAU 0.0037258258 0.0 908.86487 0.0
ML02 ? BHZ i P c 20230928 0837 41.52087784 GAU 0.00245919 0.0 1166.886 0.0
ML02 ? BHN i S ? 20230928 0837 42.11645126 GAU 0.001837615 0.0 89200.68 0.0
ML09 ? BHZ i P c 20230928 0837 41.59190369 GAU 0.0016701209 0.0 2426.6008 0.0
ML09 ? BHN e S ? 20230928 0837 42.18323898 GAU 0.0013362952 0.0 2433.9407 0.0
ML03 ? BHZ i P d 20230928 0837 41.65398026 GAU 0.0013476728 0.0 -440.00018 0.0
ML03 ? BHE e S ? 20230928 0837 42.32921219 GAU 0.0017387887 0.0 -1482.3031 0.0
ML13 ? BHZ i P c 20230928 0837 41.71113968 GAU 0.004635679 0.0 215.78123 0.0
ML13 ? BHN e S ? 20230928 0837 42.42547226 GAU 0.001768041 0.0 -799.9321 0.0
ML10 ? BHZ i P c 20230928 0837 41.77128220 GAU 0.0022356275 0.0 -1846.7628 0.0
ML10 ? BHE e S ? 20230928 0837 42.50647736 GAU 0.0016602726 0.0 -396.22308 0.0
ML05 ? BHZ i P d 20230928 0837 41.95378494 GAU 0.0048066387 0.0 -659.87555 0.0
ML05 ? BHN e S ? 20230928 0837 42.83650208 GAU 0.0014015894 0.0 356.1327 0.0
ML01 ? BHZ i P c 20230928 0837 42.00296021 GAU 0.0018629439 0.0 -1375.7025 0.0
ML01 ? BHE e S ? 20230928 0837 42.90271378 GAU 0.0012348157 0.0 537.4506 0.0
ML07 ? BHZ i P d 20230928 0837 42.01832199 GAU 0.0025755737 0.0 -1436.2842 0.0
ML07 ? BHE e S ? 20230928 0837 42.96385193 GAU 0.0013327153 0.0 -238.03072 0.0
ML12 ? BHZ i P d 20230928 0837 42.17278671 GAU 0.0010349517 0.0 -2923.6035 0.0
ML12 ? BHE e S ? 20230928 0837 43.21757507 GAU 0.0037754574 0.0 90.20733 0.0

