ML06 ? BHZ i P c 20230928 0851 42.94813538 GAU 7.187405E-4 0.0 -345.66916 0.0
ML06 ? BHN e S ? 20230928 0851 43.43721390 GAU 1.7411428E-4 0.0 -1.2839593 0.0
ML11 ? BHZ e P c 20230928 0851 43.09971237 GAU 0.0017926219 0.0 -296.0306 0.0
ML11 ? BHE e S ? 20230928 0851 43.69033813 GAU 2.6118982E-4 0.0 -44.830357 0.0
ML09 ? BHZ e P c 20230928 0851 43.19988632 GAU 2.8964033E-4 0.0 117.22164 0.0
ML09 ? BHE e S ? 20230928 0851 43.85284805 GAU 1.8141033E-4 0.0 389.75208 0.0
ML13 ? BHZ e P c 20230928 0851 43.27966690 GAU 0.0015955475 0.0 -207.45908 0.0
ML13 ? BHE e S ? 20230928 0851 44.02445984 GAU 2.107584E-4 0.0 -41.873688 0.0

