ML06 ? BHZ i P c 20230928 0838 10.33469963 GAU 8.984942E-4 0.0 5730.149 0.0
ML06 ? BHE e S ? 20230928 0838 10.78738499 GAU 0.0022354955 0.0 4420.978 0.0
ML04 ? BHZ i P c 20230928 0838 10.36183834 GAU 0.0026827857 0.0 1424.6743 0.0
ML04 ? BHN e S ? 20230928 0838 10.82314491 GAU 0.0055628484 0.0 906.90436 0.0
ML14 ? BHZ i P c 20230928 0838 10.44637871 GAU 0.0041727964 0.0 36.886242 0.0
ML14 ? BHE e S ? 20230928 0838 10.96442127 GAU 0.002238805 0.0 10362.26 0.0
ML11 ? BHZ i P c 20230928 0838 10.48310661 GAU 0.0012420785 0.0 6452.0225 0.0
ML11 ? BHN e S ? 20230928 0838 11.04729080 GAU 0.0025753926 0.0 1711.5458 0.0
ML02 ? BHZ i P c 20230928 0838 10.49150276 GAU 0.0027816196 0.0 -1101.3435 0.0
ML02 ? BHE i S ? 20230928 0838 11.09014416 GAU 0.0015523068 0.0 90158.9 0.0
ML09 ? BHZ i P c 20230928 0838 10.56864452 GAU 0.0017885367 0.0 975.4413 0.0
ML09 ? BHN e S ? 20230928 0838 11.18570042 GAU 0.0048373016 0.0 3955.9194 0.0
ML03 ? BHZ i P d 20230928 0838 10.65601444 GAU 0.0024144163 0.0 -8529.549 0.0
ML03 ? BHN e S ? 20230928 0838 11.39813042 GAU 0.0027717822 0.0 -1937.0996 0.0
ML13 ? BHZ i P c 20230928 0838 10.70234966 GAU 0.0013972078 0.0 1724.1938 0.0
ML13 ? BHN e S ? 20230928 0838 11.43167973 GAU 0.0046142284 0.0 -2142.6914 0.0
ML10 ? BHZ i P c 20230928 0838 10.76678658 GAU 0.008811499 0.0 1959.3541 0.0
ML10 ? BHN e S ? 20230928 0838 11.56182671 GAU 0.0040239654 0.0 -2793.5024 0.0
ML05 ? BHZ i P d 20230928 0838 10.91824722 GAU 0.0037084804 0.0 -1291.3341 0.0
ML05 ? BHE e S ? 20230928 0838 11.81172180 GAU 0.008962325 0.0 -659.7833 0.0
ML07 ? BHZ i P d 20230928 0838 10.98305225 GAU 0.0062347506 0.0 -790.32294 0.0
ML07 ? BHN e S ? 20230928 0838 11.91392136 GAU 0.00386327 0.0 -1074.6287 0.0
ML01 ? BHZ i P c 20230928 0838 10.98874855 GAU 0.006119101 0.0 756.43726 0.0
ML01 ? BHN i S ? 20230928 0838 11.91667843 GAU 0.0070498767 0.0 1947.1666 0.0
ML12 ? BHZ i P d 20230928 0838 11.13288021 GAU 0.0072314166 0.0 -2115.3455 0.0
ML12 ? BHN e S ? 20230928 0838 12.15250587 GAU 0.005339708 0.0 -2584.0 0.0

