ML06 ? BHZ e P d 20230928 0842 15.33159733 GAU 5.1986444E-4 0.0 -43.52959 0.0
ML06 ? BHN e S ? 20230928 0842 15.87547970 GAU 6.3186645E-4 0.0 -10.837574 0.0
ML14 ? BHZ i P d 20230928 0842 15.41113186 GAU 8.986205E-4 0.0 909.04004 0.0
ML14 ? BHN e S ? 20230928 0842 15.97924709 GAU 6.7400787E-4 0.0 375.54346 0.0
ML11 ? BHZ e P c 20230928 0842 15.42051029 GAU 0.0015900386 0.0 -290.93738 0.0
ML11 ? BHE e S ? 20230928 0842 16.03545189 GAU 4.3322603E-4 0.0 -29.353573 0.0
ML09 ? BHZ e P c 20230928 0842 15.46645546 GAU 1.6208627E-4 0.0 -137.90273 0.0
ML09 ? BHN e S ? 20230928 0842 16.12482834 GAU 1.7240996E-4 0.0 513.83453 0.0
ML13 ? BHZ e P c 20230928 0842 15.62465668 GAU 0.0010833767 0.0 -335.22754 0.0
ML13 ? BHE e S ? 20230928 0842 16.36761856 GAU 1.9344616E-4 0.0 -43.819347 0.0
ML05 ? BHZ e P c 20230928 0842 15.94275665 GAU 0.0017682657 0.0 73.39856 0.0
ML05 ? BHN e S ? 20230928 0842 16.93387604 GAU 3.3020374E-4 0.0 287.1477 0.0
ML07 ? BHZ e P c 20230928 0842 15.96658134 GAU 8.481889E-5 0.0 -644.4118 0.0
ML07 ? BHN e S ? 20230928 0842 16.97099876 GAU 6.077544E-4 0.0 11.921129 0.0

