ML06 ? BHZ i P c 20230928 0837 38.50596237 GAU 8.110836E-4 0.0 -453.9296 0.0
ML06 ? BHN e S ? 20230928 0837 39.07186890 GAU 3.467446E-4 0.0 -6.8127728 0.0
ML14 ? BHZ e P c 20230928 0837 38.51443481 GAU 5.391723E-4 0.0 -350.2471 0.0
ML14 ? BHE e S ? 20230928 0837 39.06987762 GAU 4.3682943E-4 0.0 388.291 0.0
ML02 ? BHZ e P c 20230928 0837 38.58122253 GAU 4.9914414E-4 0.0 -1548.9332 0.0
ML02 ? BHN e S ? 20230928 0837 39.20736694 GAU 8.9845946E-4 0.0 -691.7112 0.0
ML11 ? BHZ e P c 20230928 0837 38.60552979 GAU 0.0019407689 0.0 -359.50473 0.0
ML11 ? BHE e S ? 20230928 0837 39.22779846 GAU 5.199497E-4 0.0 -57.95486 0.0
ML09 ? BHZ i P c 20230928 0837 38.77230453 GAU 3.5606363E-4 0.0 41.69989 0.0
ML09 ? BHE e S ? 20230928 0837 39.51866531 GAU 1.9011152E-4 0.0 397.73154 0.0
ML13 ? BHZ e P c 20230928 0837 38.87734222 GAU 0.0013703466 0.0 -171.89088 0.0
ML13 ? BHN e S ? 20230928 0837 39.67842484 GAU 1.8810322E-4 0.0 37.837944 0.0
ML07 ? BHZ e P c 20230928 0837 39.30727386 GAU 9.706832E-4 0.0 -524.9129 0.0
ML07 ? BHN e S ? 20230928 0837 40.43606186 GAU 3.97274E-4 0.0 -15.952662 0.0