ML06 ? BHZ i P c 20230928 0841 21.53257370 GAU 9.629407E-4 0.0 91.97587 0.0
ML06 ? BHE i S ? 20230928 0841 22.00451279 GAU 5.2125764E-4 0.0 57.64368 0.0
ML14 ? BHZ e P c 20230928 0841 21.59802437 GAU 0.0010615027 0.0 -351.53693 0.0
ML14 ? BHE e S ? 20230928 0841 22.13620186 GAU 0.0019406623 0.0 412.0 0.0
ML11 ? BHZ e P c 20230928 0841 21.64991760 GAU 4.3328258E-4 0.0 -219.71376 0.0
ML11 ? BHN e S ? 20230928 0841 22.21118736 GAU 3.760439E-4 0.0 -13.1177845 0.0
ML09 ? BHZ i P c 20230928 0841 21.75844383 GAU 5.7195814E-4 0.0 113.38346 0.0
ML09 ? BHE e S ? 20230928 0841 22.42549515 GAU 6.247033E-4 0.0 371.0 0.0
ML05 ? BHZ e P c 20230928 0841 22.20997429 GAU 4.2625054E-4 0.0 -140.16551 0.0
ML05 ? BHN e S ? 20230928 0841 23.18858910 GAU 4.519902E-4 0.0 284.19678 0.0

