ML06 ? BHZ i P c 20230928 0904 21.83617401 GAU 3.7432968E-4 0.0 -88.340935 0.0
ML06 ? BHN e S ? 20230928 0904 22.27529526 GAU 3.7605932E-4 0.0 -21.927881 0.0
ML04 ? BHZ e P d 20230928 0904 21.90186119 GAU 0.0022361963 0.0 2053.9795 0.0
ML04 ? BHN e S ? 20230928 0904 22.39148712 GAU 0.0017078578 0.0 791.5385 0.0
ML14 ? BHZ i P c 20230928 0904 21.95650864 GAU 0.00159211 0.0 -255.89757 0.0
ML14 ? BHE e S ? 20230928 0904 22.45988274 GAU 3.3431416E-4 0.0 464.5677 0.0
ML11 ? BHZ i P c 20230928 0904 21.98408508 GAU 8.9844957E-4 0.0 -134.95648 0.0
ML11 ? BHN i S ? 20230928 0904 22.52184486 GAU 5.223452E-4 0.0 2.8766863 0.0
ML09 ? BHZ i P c 20230928 0904 22.07883644 GAU 8.839353E-4 0.0 51.653355 0.0
ML09 ? BHE e S ? 20230928 0904 22.67039871 GAU 2.7076626E-4 0.0 367.21765 0.0
ML13 ? BHZ e P c 20230928 0904 22.23637962 GAU 0.001209693 0.0 -112.05177 0.0
ML13 ? BHE e S ? 20230928 0904 22.96840858 GAU 0.001895868 0.0 -51.0 0.0
ML07 ? BHZ e P c 20230928 0904 22.52010155 GAU 2.7975754E-4 0.0 -667.4573 0.0
ML07 ? BHN e S ? 20230928 0904 23.43532562 GAU 2.0264457E-4 0.0 -4.9947453 0.0

