ML06 ? BHZ i P c 20230928 0840 16.55735970 GAU 6.210142E-4 0.0 1159.2844 0.0
ML06 ? BHN e S ? 20230928 0840 17.05624199 GAU 0.0023175818 0.0 -612.5963 0.0
ML04 ? BHZ i P d 20230928 0840 16.61369705 GAU 0.0057532475 0.0 530.9391 0.0
ML04 ? BHE e S ? 20230928 0840 17.14233780 GAU 0.0019105376 0.0 84.94162 0.0
ML14 ? BHZ i P c 20230928 0840 16.65836334 GAU 0.001788502 0.0 0.98641783 0.0
ML14 ? BHE e S ? 20230928 0840 17.16392326 GAU 0.001347618 0.0 1467.1143 0.0
ML11 ? BHZ i P c 20230928 0840 16.67942238 GAU 7.770544E-4 0.0 960.4135 0.0
ML11 ? BHN e S ? 20230928 0840 17.22210503 GAU 9.703738E-4 0.0 407.0 0.0
ML02 ? BHZ i P c 20230928 0840 16.70083046 GAU 0.0041851387 0.0 -282.23526 0.0
ML02 ? BHN e S ? 20230928 0840 17.24329567 GAU 8.235778E-4 0.0 -18254.822 0.0
ML09 ? BHZ i P c 20230928 0840 16.77011299 GAU 0.0018778506 0.0 465.5065 0.0
ML09 ? BHN e S ? 20230928 0840 17.41838455 GAU 0.0012253766 0.0 -170.97475 0.0
ML03 ? BHZ i P d 20230928 0840 16.82892990 GAU 0.0029510595 0.0 4831.012 0.0
ML03 ? BHN e S ? 20230928 0840 17.51935768 GAU 7.187405E-4 0.0 269.45618 0.0
ML13 ? BHZ i P c 20230928 0840 16.88219452 GAU 0.0030904529 0.0 -173.57512 0.0
ML13 ? BHN e S ? 20230928 0840 17.61307526 GAU 0.0036648738 0.0 -277.64438 0.0
ML10 ? BHZ i P c 20230928 0840 17.02365494 GAU 0.0019315821 0.0 2634.7925 0.0
ML10 ? BHN e S ? 20230928 0840 17.81437492 GAU 0.0010867191 0.0 -101.70279 0.0
ML01 ? BHZ i P c 20230928 0840 17.11277008 GAU 0.0013972316 0.0 -1594.4523 0.0
ML01 ? BHN e S ? 20230928 0840 17.96928787 GAU 0.002994994 0.0 1632.3939 0.0
ML05 ? BHZ i P d 20230928 0840 17.14538574 GAU 0.0019315821 0.0 333.34702 0.0
ML05 ? BHE e S ? 20230928 0840 18.02884483 GAU 5.015065E-4 0.0 -356.89105 0.0
ML07 ? BHZ i P d 20230928 0840 17.19946098 GAU 0.0023179231 0.0 -771.41583 0.0
ML07 ? BHE e S ? 20230928 0840 18.16588020 GAU 0.002521279 0.0 -165.16315 0.0
ML12 ? BHZ i P d 20230928 0840 17.37363625 GAU 0.0011643893 0.0 -2302.3284 0.0
ML12 ? BHE e S ? 20230928 0840 18.44353104 GAU 0.0031839844 0.0 644.52295 0.0

