ML06 ? BHZ i P c 20230928 0840 39.12036133 GAU 6.443742E-4 0.0 160.89865 0.0
ML06 ? BHN e S ? 20230928 0840 39.58885574 GAU 8.083509E-4 0.0 45.22544 0.0
ML04 ? BHZ e P c 20230928 0840 39.18202972 GAU 0.0024598157 0.0 -946.1098 0.0
ML04 ? BHE i S ? 20230928 0840 39.70429230 GAU 3.611582E-4 0.0 297.45413 0.0
ML14 ? BHZ i P c 20230928 0840 39.20552063 GAU 0.0023867737 0.0 673.7167 0.0
ML14 ? BHE i S ? 20230928 0840 39.72598267 GAU 4.3682943E-4 0.0 546.5175 0.0
ML11 ? BHZ i P c 20230928 0840 39.23664856 GAU 0.0020120891 0.0 -52.664993 0.0
ML11 ? BHN e S ? 20230928 0840 39.77928162 GAU 0.0014902146 0.0 25.536999 0.0
ML02 ? BHZ e P c 20230928 0840 39.27795410 GAU 0.0016816658 0.0 -900.1755 0.0
ML02 ? BHN i S ? 20230928 0840 39.89495087 GAU 8.924218E-4 0.0 1116.1416 0.0
ML09 ? BHZ i P c 20230928 0840 39.32723618 GAU 8.110836E-4 0.0 113.85657 0.0
ML09 ? BHN e S ? 20230928 0840 39.97568893 GAU 0.001077842 0.0 436.36395 0.0
ML13 ? BHZ i P c 20230928 0840 39.45820999 GAU 0.0011175876 0.0 -111.34481 0.0
ML13 ? BHN e S ? 20230928 0840 40.18424606 GAU 6.288363E-4 0.0 5.532674 0.0
ML10 ? BHZ i P d 20230928 0840 39.61942291 GAU 9.668011E-4 0.0 2907.5474 0.0
ML10 ? BHE e S ? 20230928 0840 40.47305679 GAU 4.990764E-4 0.0 -164.26851 0.0
ML07 ? BHZ i P d 20230928 0840 39.75451660 GAU 7.336553E-4 0.0 -419.45078 0.0
ML07 ? BHE e S ? 20230928 0840 40.71619415 GAU 0.0013039378 0.0 -68.30606 0.0
ML05 ? BHZ e P d 20230928 0840 39.75889969 GAU 9.703055E-4 0.0 80.130806 0.0
ML05 ? BHN e S ? 20230928 0840 40.69722748 GAU 4.3783634E-4 0.0 281.19897 0.0
ML01 ? BHZ i P d 20230928 0840 39.84413147 GAU 0.0029807787 0.0 1006.343 0.0
ML01 ? BHN e S ? 20230928 0840 40.82610703 GAU 0.0015646226 0.0 1647.5005 0.0
ML12 ? BHZ i P d 20230928 0840 39.91831207 GAU 8.235618E-4 0.0 -1248.0654 0.0
ML12 ? BHE e S ? 20230928 0840 40.97229767 GAU 0.0014362328 0.0 421.50644 0.0

