ML06 ? BHZ i P c 20230928 0839 03.91309381 GAU 0.0010781382 0.0 -38.370678 0.0
ML06 ? BHN e S ? 20230928 0839 04.38161469 GAU 0.001197258 0.0 -67.0 0.0
ML14 ? BHZ e P c 20230928 0839 03.94043493 GAU 0.0026825822 0.0 -1054.8658 0.0
ML14 ? BHE e S ? 20230928 0839 04.43378925 GAU 0.0021826522 0.0 237.57487 0.0
ML11 ? BHZ i P c 20230928 0839 04.01137352 GAU 0.0010867633 0.0 -209.79823 0.0
ML11 ? BHN e S ? 20230928 0839 04.53510952 GAU 0.0015648993 0.0 -28.311644 0.0
ML04 ? BHZ e P c 20230928 0839 04.01410723 GAU 0.0024143823 0.0 -685.00555 0.0
ML04 ? BHN e S ? 20230928 0839 04.53835917 GAU 4.7659542E-4 0.0 684.91486 0.0
ML09 ? BHZ i P c 20230928 0839 04.09203482 GAU 7.762137E-4 0.0 101.23876 0.0
ML09 ? BHE e S ? 20230928 0839 04.67878532 GAU 0.0015530608 0.0 323.88333 0.0
ML02 ? BHZ e P d 20230928 0839 04.14402676 GAU 0.0014815495 0.0 -241.71783 0.0
ML02 ? BHN i S ? 20230928 0839 04.74195671 GAU 0.0010730738 0.0 2391.9905 0.0
ML13 ? BHZ i P c 20230928 0839 04.19957066 GAU 0.0032192552 0.0 -338.8362 0.0
ML13 ? BHE e S ? 20230928 0839 04.86064339 GAU 6.5862574E-4 0.0 -29.449747 0.0
ML10 ? BHZ e P c 20230928 0839 04.23577642 GAU 7.5469475E-4 0.0 -107.85661 0.0
ML10 ? BHN e S ? 20230928 0839 04.95761824 GAU 6.252496E-4 0.0 -20.248417 0.0
ML03 ? BHZ i P c 20230928 0839 04.25031805 GAU 6.2100764E-4 0.0 -2706.515 0.0
ML03 ? BHN e S ? 20230928 0839 04.98845911 GAU 0.0020961184 0.0 41.902584 0.0
ML05 ? BHZ i P d 20230928 0839 04.52974653 GAU 0.0014904941 0.0 126.0 0.0
ML05 ? BHN e S ? 20230928 0839 05.45081949 GAU 5.042115E-4 0.0 331.00064 0.0
ML07 ? BHZ i P d 20230928 0839 04.53766537 GAU 4.4922307E-4 0.0 -320.77335 0.0
ML07 ? BHE e S ? 20230928 0839 05.48450804 GAU 0.0014898045 0.0 -58.0 0.0
ML01 ? BHZ e P c 20230928 0839 04.58657074 GAU 0.0011546195 0.0 -69.18468 0.0
ML01 ? BHE e S ? 20230928 0839 05.51769686 GAU 0.0022360554 0.0 528.36774 0.0
ML12 ? BHZ e P c 20230928 0839 04.71889305 GAU 0.0014764742 0.0 -1581.9797 0.0
ML12 ? BHE e S ? 20230928 0839 05.79521418 GAU 0.0023284866 0.0 417.0 0.0

