ML06 ? BHZ i P c 20230928 0917 18.07409096 GAU 0.0010481807 0.0 -186.39996 0.0
ML06 ? BHE e S ? 20230928 0917 18.58402634 GAU 0.0015042952 0.0 28.889517 0.0
ML14 ? BHZ e P d 20230928 0917 18.11096954 GAU 0.0040525757 0.0 807.9121 0.0
ML14 ? BHN i S ? 20230928 0917 18.66399574 GAU 0.00130757 0.0 334.4944 0.0
ML11 ? BHZ e P d 20230928 0917 18.23658180 GAU 8.3763205E-4 0.0 72.53726 0.0
ML11 ? BHE e S ? 20230928 0917 18.84505272 GAU 1.6123537E-4 0.0 -33.35357 0.0
ML09 ? BHZ i P c 20230928 0917 18.32273293 GAU 6.138104E-4 0.0 54.405342 0.0
ML09 ? BHN e S ? 20230928 0917 19.03044319 GAU 3.8973245E-4 0.0 491.0 0.0
ML13 ? BHZ e P d 20230928 0917 18.33675957 GAU 0.0010482186 0.0 34.387413 0.0
ML13 ? BHE e S ? 20230928 0917 19.03138542 GAU 2.2972033E-4 0.0 -33.115738 0.0