ML06 ? BHZ i P c 20230928 0847 20.51286888 GAU 0.0014903551 0.0 244.44153 0.0
ML06 ? BHN e S ? 20230928 0847 20.99516678 GAU 3.4048327E-4 0.0 296.03265 0.0
ML04 ? BHZ i P c 20230928 0847 20.56432724 GAU 0.005468587 0.0 619.36395 0.0
ML04 ? BHE e S ? 20230928 0847 21.07677841 GAU 0.002564635 0.0 254.99086 0.0
ML14 ? BHZ i P c 20230928 0847 20.59895706 GAU 0.0010249148 0.0 -1163.8539 0.0
ML14 ? BHN e S ? 20230928 0847 21.10922813 GAU 0.0017955538 0.0 1418.8931 0.0
ML11 ? BHZ i P c 20230928 0847 20.62359619 GAU 7.1875885E-4 0.0 -95.77312 0.0
ML11 ? BHN e S ? 20230928 0847 21.19260406 GAU 6.065914E-4 0.0 138.02437 0.0
ML02 ? BHZ i P c 20230928 0847 20.63533020 GAU 0.0023162602 0.0 -1340.7844 0.0
ML02 ? BHE e S ? 20230928 0847 21.18789482 GAU 0.0016819813 0.0 -6037.1284 0.0
ML09 ? BHZ i P c 20230928 0847 20.69986534 GAU 0.0012578135 0.0 -776.1349 0.0
ML09 ? BHN e S ? 20230928 0847 21.35107040 GAU 0.0011859315 0.0 106.76738 0.0
ML03 ? BHZ i P c 20230928 0847 20.84286499 GAU 6.239292E-4 0.0 -5508.855 0.0
ML03 ? BHN e S ? 20230928 0847 21.55896950 GAU 0.0010482433 0.0 -265.78586 0.0
ML13 ? BHZ i P c 20230928 0847 20.84483337 GAU 0.0010349517 0.0 -94.99848 0.0
ML13 ? BHN e S ? 20230928 0847 21.60706711 GAU 0.0011647625 0.0 338.29376 0.0
ML10 ? BHZ e P d 20230928 0847 20.91340828 GAU 0.0032449204 0.0 2903.2158 0.0
ML10 ? BHN e S ? 20230928 0847 21.68669319 GAU 0.0025749218 0.0 -91.38924 0.0
ML05 ? BHZ e P d 20230928 0847 21.05909729 GAU 0.00442569 0.0 598.2875 0.0
ML05 ? BHN e S ? 20230928 0847 21.95916748 GAU 0.0018112261 0.0 337.92502 0.0
ML01 ? BHZ i P c 20230928 0847 21.06505585 GAU 0.0014974142 0.0 -1934.2102 0.0
ML01 ? BHE e S ? 20230928 0847 21.93580055 GAU 0.0010850814 0.0 458.0 0.0
ML07 ? BHZ i P d 20230928 0847 21.13231659 GAU 0.0036944016 0.0 -534.033 0.0
ML07 ? BHE e S ? 20230928 0847 22.07105637 GAU 0.0034064015 0.0 -63.838573 0.0
ML12 ? BHZ e P d 20230928 0847 21.29386711 GAU 0.0013116118 0.0 -1514.0277 0.0
ML12 ? BHE e S ? 20230928 0847 22.32331467 GAU 0.0034882466 0.0 283.9743 0.0

