ML06 ? BHZ i P c 20230928 0841 55.59298325 GAU 0.0018432452 0.0 -54.15733 0.0
ML06 ? BHN e S ? 20230928 0841 56.04053116 GAU 0.0012481218 0.0 -74.534325 0.0
ML04 ? BHZ e P d 20230928 0841 55.68965912 GAU 0.0070357188 0.0 977.19104 0.0
ML04 ? BHE e S ? 20230928 0841 56.18776703 GAU 9.983346E-4 0.0 273.91748 0.0
ML14 ? BHZ i P c 20230928 0841 55.70067215 GAU 0.0010094969 0.0 -149.58365 0.0
ML14 ? BHE e S ? 20230928 0841 56.17928314 GAU 0.0022361963 0.0 365.64328 0.0
ML02 ? BHZ i P c 20230928 0841 55.71702194 GAU 8.9843106E-4 0.0 -1332.3649 0.0
ML02 ? BHE e S ? 20230928 0841 56.25289536 GAU 9.611134E-4 0.0 3908.5747 0.0
ML11 ? BHZ i P c 20230928 0841 55.73151016 GAU 0.0011860124 0.0 103.60972 0.0
ML11 ? BHN e S ? 20230928 0841 56.29113770 GAU 5.8123405E-4 0.0 18.459333 0.0
ML09 ? BHZ i P c 20230928 0841 55.82024765 GAU 0.0017883964 0.0 204.9812 0.0
ML09 ? BHE e S ? 20230928 0841 56.39707947 GAU 4.2121916E-4 0.0 319.14557 0.0
ML13 ? BHZ i P c 20230928 0841 55.93190384 GAU 0.0010350199 0.0 -90.46528 0.0
ML13 ? BHE e S ? 20230928 0841 56.58934784 GAU 6.7793316E-4 0.0 -75.567764 0.0
ML10 ? BHZ e P c 20230928 0841 56.02909470 GAU 0.001978321 0.0 -813.95496 0.0
ML10 ? BHE e S ? 20230928 0841 56.76456070 GAU 8.301664E-4 0.0 -34.880188 0.0
ML05 ? BHZ i P d 20230928 0841 56.19325638 GAU 0.002002583 0.0 141.21227 0.0
ML05 ? BHN e S ? 20230928 0841 57.04055786 GAU 0.0011689465 0.0 283.71237 0.0
ML07 ? BHZ i P d 20230928 0841 56.25168610 GAU 8.1109226E-4 0.0 -517.92865 0.0
ML07 ? BHN e S ? 20230928 0841 57.15962601 GAU 0.001531905 0.0 -43.432457 0.0
ML01 ? BHZ e P c 20230928 0841 56.29479218 GAU 0.0010035135 0.0 -466.45572 0.0
ML01 ? BHE e S ? 20230928 0841 57.23093414 GAU 0.0014972095 0.0 603.0 0.0
ML12 ? BHZ e P d 20230928 0841 56.39980698 GAU 0.0012245731 0.0 -986.7868 0.0
ML12 ? BHE e S ? 20230928 0841 57.42204285 GAU 0.0014285119 0.0 411.9998 0.0

